UNKNOWN                 
1 82311U          26089.59295898  .00000556  00000+0  83978-3 0  9998
2 82311  99.4200 143.4878 0108122  36.9240 323.9279 13.54691550564924
UNKNOWN                 
1 82363U          26089.62995483  .00001100  00000+0  18281-2 0  9996
2 82363  66.9381 322.9427 0451211  96.1221 269.1407 13.15723007304455
UNKNOWN                 
1 82369U          26087.79817060  .00000039  00000+0  55497-4 0  9994
2 82369  98.8938 104.6572 0083803  46.3000 314.5067 13.98234539571999
UNKNOWN                 
1 82381U          26090.60307907  .00031342  00000+0  34968-2 0  9995
2 82381  98.3902 325.9403 0007864 140.4198 219.7591 14.86920300526957
UNKNOWN                 
1 82402U          26088.06831946  .00007305  00000+0  51113-3 0  9995
2 82402  86.6589 109.6089 0009435 121.5263 238.6896 15.05089085470457
UNKNOWN                 
1 82432U          26085.14374710  .00001459  00000+0  31017-3 0  9990
2 82432  74.0054 143.2911 0057389 281.9385  77.5350 14.59007806497984
UNKNOWN                 
1 82448U          26089.09924917  .00007708  00000+0  53546-3 0  9999
2 82448  85.8751 141.9197 0007352 219.7725 140.2971 15.05376640453186
UNKNOWN                 
1 82453U          26090.37454145  .00000002  00000+0  35382-3 0  9997
2 82453 102.1963  51.7419 0094132   7.0530 353.1834 12.39713139559529
UNKNOWN                 
1 82484U          26090.29397163  .00000243  00000+0  40601-3 0  9995
2 82484  99.3475 111.3120 0043675 278.9248  80.6948 13.55844425605343
UNKNOWN                 
1 82494U          26090.48484977  .00021182  00000+0  21460-2 0  9993
2 82494  74.0064 164.3852 0009199 289.1635  70.8551 14.90841589101143
UNKNOWN                 
1 82500U          26089.40805795  .00003771  00000+0  16881-2 0  9991
2 82500  70.9649 135.8098 0121130 309.3428  49.7009 14.19362426634227
UNKNOWN                 
1 82524U          26089.10998194  .00004713  00000+0  14706-2 0  9991
2 82524  73.2810 335.6153 0132800 100.1683  48.5375 14.36174335592446
